[{"OBJECT_NAME":"STARLINK-1790","OBJECT_ID":"2020-073X","EPOCH":"2026-03-10T00:00:02.999808","MEAN_MOTION":15.73247405,"ECCENTRICITY":0.00030153,"INCLINATION":53.0418,"RA_OF_ASC_NODE":197.0184,"ARG_OF_PERICENTER":160.3471,"MEAN_ANOMALY":75.7637,"EPHEMERIS_TYPE":0,"CLASSIFICATION_TYPE":"U","NORAD_CAT_ID":46691,"ELEMENT_SET_NO":999,"REV_AT_EPOCH":596,"BSTAR":0.00070221254,"MEAN_MOTION_DOT":0.00099338,"MEAN_MOTION_DDOT":0},{"OBJECT_NAME":"STARLINK-11686 [DTC]","OBJECT_ID":"2025-119A","EPOCH":"2026-03-09T10:47:41.721216","MEAN_MOTION":15.71033626,"ECCENTRICITY":0.00031422,"INCLINATION":43.0018,"RA_OF_ASC_NODE":210.861,"ARG_OF_PERICENTER":254.3023,"MEAN_ANOMALY":105.7498,"EPHEMERIS_TYPE":0,"CLASSIFICATION_TYPE":"U","NORAD_CAT_ID":64233,"ELEMENT_SET_NO":999,"REV_AT_EPOCH":4520,"BSTAR":0.0016432657,"MEAN_MOTION_DOT":0.00217809,"MEAN_MOTION_DDOT":0}]
